GLOBALSTAR M075         
1 37192U 10054E   25184.57946277 -.00000081  00000+0  12456-3 0  9999
2 37192  51.9936 131.6253 0000394  36.8928 136.1866 12.62265880677911
GLOBALSTAR M073         
1 37193U 10054F   25184.79647194 -.00000093  00000+0  61239-4 0  9997
2 37193  52.0073  44.7963 0000891  63.2409  16.5603 12.62272387679987
GLOBALSTAR M083         
1 37739U 11033A   25184.39759714 -.00000073  00000+0  17133-3 0  9990
2 37739  51.9879 354.7214 0000664  96.9505 268.2060 12.62259690648909
GLOBALSTAR M088         
1 37740U 11033B   25184.53118773 -.00000094  00000+0  56884-4 0  9992
2 37740  52.0210 259.8971 0000567 146.5163 226.7783 12.62266431644460
GLOBALSTAR M091         
1 37741U 11033C   25184.38598456 -.00000101  00000+0  12963-4 0  9995
2 37741  51.9975 223.8181 0000336 205.9084 167.7071 12.62269155645233
GLOBALSTAR M085         
1 37742U 11033D   25184.40283942 -.00000088  00000+0  89638-4 0  9997
2 37742  51.9838 174.7880 0000184 293.3150 217.4906 12.62269631645743
GLOBALSTAR M081         
1 37743U 11033E   25184.75088228 -.00000091  00000+0  70823-4 0  9996
2 37743  51.9933 176.5281 0000280 336.2945 195.3644 12.62266916646311
GLOBALSTAR M089         
1 37744U 11033F   25184.75806064 -.00000087  00000+0  93232-4 0  9997
2 37744  51.9918 130.7285 0000642  51.0622 334.4974 12.62265180647031
